[
  {
    "place_id": 185747538,
    "licence": "Data © OpenStreetMap contributors, ODbL 1.0. http://osm.org/copyright",
    "osm_type": "relation",
    "osm_id": 1577673,
    "lat": "55.7535908",
    "lon": "37.6215013",
    "class": "highway",
    "type": "pedestrian",
    "place_rank": 26,
    "importance": 0.5841613501520024,
    "addresstype": "road",
    "name": "Красная площадь",
    "display_name": "Красная площадь, 4, Китай-город, Тверской район, Москва, Центральный федеральный округ, 109012, Россия",
    "address": {
      "road": "Красная площадь",
      "quarter": "4",
      "neighbourhood": "Китай-город",
      "suburb": "Тверской район",
      "city": "Москва",
      "state": "Москва",
      "ISO3166-2-lvl4": "RU-MOW",
      "region": "Центральный федеральный округ",
      "postcode": "109012",
      "country": "Россия",
      "country_code": "ru"
    },
    "extratags": {
      "place": "square",
      "ref:whc": "545",
      "surface": "sett",
      "tourism": "attraction",
      "heritage": "1",
      "wikidata": "Q41116",
      "wikipedia": "ru:Красная площадь",
      "wheelchair": "yes",
      "area:highway": "pedestrian",
      "whc:criteria": "(i)(ii)(iv)(vi)",
      "heritage:operator": "whc",
      "whc:inscription_date": "1990"
    },
    "namedetails": {
      "name": "Красная площадь",
      "name:be": "Красная плошча",
      "name:bg": "Червен площад",
      "name:ca": "Plaça Roja",
      "name:de": "Roter Platz",
      "name:en": "Red Square",
      "name:et": "Punane väljak",
      "name:fa": "میدان سرخ",
      "name:fi": "Punainen tori",
      "name:fr": "Place Rouge",
      "name:hr": "Crveni trg",
      "name:hu": "Vörös tér",
      "name:it": "Piazza Rossa",
      "name:ja": "红场",
      "name:ko": "붉은 광장",
      "name:la": "Area Rubra",
      "name:lt": "Raudonoji aikštė",
      "name:ml": "ചുവപ്പ് ചത്വരം",
      "name:nl": "Rode Plein",
      "name:pl": "Plac Czerwony",
      "name:ru": "Красная площадь",
      "name:sk": "Červené námestie",
      "name:sv": "Röda torget",
      "name:tr": "Kızıl Meydan",
      "name:uk": "Красна площа",
      "name:vi": "Quảng trường Đỏ",
      "name:zh": "红场",
      "alt_name:be": "Чырвоная плошча",
      "alt_name:uk": "Червона площа",
      "alt_name:vi": "Hồng Trường",
      "name:zh-Hans": "红场",
      "name:zh-Hant": "紅場"
    },
    "boundingbox": [
      "55.7519945",
      "55.7552155",
      "37.6179275",
      "37.6232959"
    ]
  }
]